STARLINK-36188          
1 67122U 25299W   25358.91670139 -.01776577  00000+0 -83793-2 0  9997
2 67122  42.9971 241.9686 0001361 270.8910 232.7126 15.85285212  2763
STARLINK-36151          
1 67123U 25299X   25358.91670139 -.01781586  00000+0 -84131-2 0  9991
2 67123  42.9974 241.9768 0001407 275.7547 224.6051 15.85269515  2764
STARLINK-36195          
1 67124U 25299Y   25358.91670139 -.01784893  00000+0 -84189-2 0  9999
2 67124  42.9974 241.9644 0001433 269.3514 235.9022 15.85299496  2764
STARLINK-36219          
1 67125U 25299Z   25358.91670139 -.01774332  00000+0 -83597-2 0  9999
2 67125  42.9970 241.9600 0001432 272.9361 233.8811 15.85301666  2768
STARLINK-36223          
1 67126U 25299AA  25358.91670139 -.01785152  00000+0 -84153-2 0  9991
2 67126  42.9971 241.9555 0001348 266.8678 241.7971 15.85312885  2768
STARLINK-36164          
1 67127U 25299AB  25358.91670139 -.01777764  00000+0 -83737-2 0  9999
2 67127  42.9971 241.9513 0001349 267.2203 243.1331 15.85314835  2766
STARLINK-35685          
1 67128U 25299AC  25358.91670139 -.01779085  00000+0 -83911-2 0  9992
2 67128  42.9969 241.9390 0001376 264.2229 250.8470 15.85289871  2762
STARLINK-36214          
1 67129U 25299AD  25358.91670139 -.01780095  00000+0 -83865-2 0  9994
2 67129  42.9970 241.9461 0001348 273.9926 238.3189 15.85314988  2760
STARLINK-36194          
1 67130U 25299AE  25358.91670139 -.01774729  00000+0 -84062-2 0  9993
2 67130  42.9970 241.9286 0001456 276.2575 243.6667 15.85193605  2764
ZIYUAN 3-04 (ZY 3-04)   
1 67131U 25300A   25355.76567347  .00001396  00000+0  65770-4 0  9990
2 67131  97.4922  69.8294 0002762 167.6924 192.4380 15.21179479   860
CZ-4B R/B               
1 67132U 25300B   25352.67574779  .00040543  26530-5  19566-3 0  9995
2 67132  97.5563  66.9660 0174197   9.3582 351.0851 15.63831828   407
KUIPER-00144            
1 67133U 25301A   25358.91670139  .00001664  00000+0  58681-4 0  9998
2 67133  51.8700  66.4129 0006093 118.1173 101.2600 15.35379035  1643
