CCSDS_OMM_VERS = 2.0
CREATION_DATE  = 
ORIGINATOR     = 

OBJECT_NAME    = STARLINK-36188
OBJECT_ID      = 2025-299W
CENTER_NAME    = EARTH
REF_FRAME      = TEME
TIME_SYSTEM    = UTC
MEAN_ELEMENT_THEORY = SGP/SGP4

EPOCH          = 2025-12-24T22:00:03.000096
MEAN_MOTION    = 15.85285212
ECCENTRICITY   = .00013614
INCLINATION    = 42.9971
RA_OF_ASC_NODE = 241.9686
ARG_OF_PERICENTER = 270.8910
MEAN_ANOMALY   = 232.7126

EPHEMERIS_TYPE = 0
CLASSIFICATION_TYPE = U
NORAD_CAT_ID   = 67122
ELEMENT_SET_NO = 999
REV_AT_EPOCH   = 276
BSTAR          = -.83792515E-2
MEAN_MOTION_DOT = -.1776577E-1
MEAN_MOTION_DDOT = 0

CCSDS_OMM_VERS = 2.0
CREATION_DATE  = 
ORIGINATOR     = 

OBJECT_NAME    = STARLINK-36151
OBJECT_ID      = 2025-299X
CENTER_NAME    = EARTH
REF_FRAME      = TEME
TIME_SYSTEM    = UTC
MEAN_ELEMENT_THEORY = SGP/SGP4

EPOCH          = 2025-12-24T22:00:03.000096
MEAN_MOTION    = 15.85269515
ECCENTRICITY   = .00014072
INCLINATION    = 42.9974
RA_OF_ASC_NODE = 241.9768
ARG_OF_PERICENTER = 275.7547
MEAN_ANOMALY   = 224.6051

EPHEMERIS_TYPE = 0
CLASSIFICATION_TYPE = U
NORAD_CAT_ID   = 67123
ELEMENT_SET_NO = 999
REV_AT_EPOCH   = 276
BSTAR          = -.84131365E-2
MEAN_MOTION_DOT = -.1781586E-1
MEAN_MOTION_DDOT = 0

CCSDS_OMM_VERS = 2.0
CREATION_DATE  = 
ORIGINATOR     = 

OBJECT_NAME    = STARLINK-36195
OBJECT_ID      = 2025-299Y
CENTER_NAME    = EARTH
REF_FRAME      = TEME
TIME_SYSTEM    = UTC
MEAN_ELEMENT_THEORY = SGP/SGP4

EPOCH          = 2025-12-24T22:00:03.000096
MEAN_MOTION    = 15.85299496
ECCENTRICITY   = .00014333
INCLINATION    = 42.9974
RA_OF_ASC_NODE = 241.9644
ARG_OF_PERICENTER = 269.3514
MEAN_ANOMALY   = 235.9022

EPHEMERIS_TYPE = 0
CLASSIFICATION_TYPE = U
NORAD_CAT_ID   = 67124
ELEMENT_SET_NO = 999
REV_AT_EPOCH   = 276
BSTAR          = -.84188643E-2
MEAN_MOTION_DOT = -.1784893E-1
MEAN_MOTION_DDOT = 0

CCSDS_OMM_VERS = 2.0
CREATION_DATE  = 
ORIGINATOR     = 

OBJECT_NAME    = STARLINK-36219
OBJECT_ID      = 2025-299Z
CENTER_NAME    = EARTH
REF_FRAME      = TEME
TIME_SYSTEM    = UTC
MEAN_ELEMENT_THEORY = SGP/SGP4

EPOCH          = 2025-12-24T22:00:03.000096
MEAN_MOTION    = 15.85301666
ECCENTRICITY   = .00014322
INCLINATION    = 42.9970
RA_OF_ASC_NODE = 241.9600
ARG_OF_PERICENTER = 272.9361
MEAN_ANOMALY   = 233.8811

EPHEMERIS_TYPE = 0
CLASSIFICATION_TYPE = U
NORAD_CAT_ID   = 67125
ELEMENT_SET_NO = 999
REV_AT_EPOCH   = 276
BSTAR          = -.83596887E-2
MEAN_MOTION_DOT = -.1774332E-1
MEAN_MOTION_DDOT = 0

CCSDS_OMM_VERS = 2.0
CREATION_DATE  = 
ORIGINATOR     = 

OBJECT_NAME    = STARLINK-36223
OBJECT_ID      = 2025-299AA
CENTER_NAME    = EARTH
REF_FRAME      = TEME
TIME_SYSTEM    = UTC
MEAN_ELEMENT_THEORY = SGP/SGP4

EPOCH          = 2025-12-24T22:00:03.000096
MEAN_MOTION    = 15.85312885
ECCENTRICITY   = .00013482
INCLINATION    = 42.9971
RA_OF_ASC_NODE = 241.9555
ARG_OF_PERICENTER = 266.8678
MEAN_ANOMALY   = 241.7971

EPHEMERIS_TYPE = 0
CLASSIFICATION_TYPE = U
NORAD_CAT_ID   = 67126
ELEMENT_SET_NO = 999
REV_AT_EPOCH   = 276
BSTAR          = -.84152555E-2
MEAN_MOTION_DOT = -.1785152E-1
MEAN_MOTION_DDOT = 0

CCSDS_OMM_VERS = 2.0
CREATION_DATE  = 
ORIGINATOR     = 

OBJECT_NAME    = STARLINK-36164
OBJECT_ID      = 2025-299AB
CENTER_NAME    = EARTH
REF_FRAME      = TEME
TIME_SYSTEM    = UTC
MEAN_ELEMENT_THEORY = SGP/SGP4

EPOCH          = 2025-12-24T22:00:03.000096
MEAN_MOTION    = 15.85314835
ECCENTRICITY   = .00013497
INCLINATION    = 42.9971
RA_OF_ASC_NODE = 241.9513
ARG_OF_PERICENTER = 267.2203
MEAN_ANOMALY   = 243.1331

EPHEMERIS_TYPE = 0
CLASSIFICATION_TYPE = U
NORAD_CAT_ID   = 67127
ELEMENT_SET_NO = 999
REV_AT_EPOCH   = 276
BSTAR          = -.83736689E-2
MEAN_MOTION_DOT = -.1777764E-1
MEAN_MOTION_DDOT = 0

CCSDS_OMM_VERS = 2.0
CREATION_DATE  = 
ORIGINATOR     = 

OBJECT_NAME    = STARLINK-35685
OBJECT_ID      = 2025-299AC
CENTER_NAME    = EARTH
REF_FRAME      = TEME
TIME_SYSTEM    = UTC
MEAN_ELEMENT_THEORY = SGP/SGP4

EPOCH          = 2025-12-24T22:00:03.000096
MEAN_MOTION    = 15.85289871
ECCENTRICITY   = .00013767
INCLINATION    = 42.9969
RA_OF_ASC_NODE = 241.9390
ARG_OF_PERICENTER = 264.2229
MEAN_ANOMALY   = 250.8470

EPHEMERIS_TYPE = 0
CLASSIFICATION_TYPE = U
NORAD_CAT_ID   = 67128
ELEMENT_SET_NO = 999
REV_AT_EPOCH   = 276
BSTAR          = -.83910826E-2
MEAN_MOTION_DOT = -.1779085E-1
MEAN_MOTION_DDOT = 0

CCSDS_OMM_VERS = 2.0
CREATION_DATE  = 
ORIGINATOR     = 

OBJECT_NAME    = STARLINK-36214
OBJECT_ID      = 2025-299AD
CENTER_NAME    = EARTH
REF_FRAME      = TEME
TIME_SYSTEM    = UTC
MEAN_ELEMENT_THEORY = SGP/SGP4

EPOCH          = 2025-12-24T22:00:03.000096
MEAN_MOTION    = 15.85314988
ECCENTRICITY   = .00013488
INCLINATION    = 42.9970
RA_OF_ASC_NODE = 241.9461
ARG_OF_PERICENTER = 273.9926
MEAN_ANOMALY   = 238.3189

EPHEMERIS_TYPE = 0
CLASSIFICATION_TYPE = U
NORAD_CAT_ID   = 67129
ELEMENT_SET_NO = 999
REV_AT_EPOCH   = 276
BSTAR          = -.83864711E-2
MEAN_MOTION_DOT = -.1780095E-1
MEAN_MOTION_DDOT = 0

CCSDS_OMM_VERS = 2.0
CREATION_DATE  = 
ORIGINATOR     = 

OBJECT_NAME    = STARLINK-36194
OBJECT_ID      = 2025-299AE
CENTER_NAME    = EARTH
REF_FRAME      = TEME
TIME_SYSTEM    = UTC
MEAN_ELEMENT_THEORY = SGP/SGP4

EPOCH          = 2025-12-24T22:00:03.000096
MEAN_MOTION    = 15.85193605
ECCENTRICITY   = .00014562
INCLINATION    = 42.9970
RA_OF_ASC_NODE = 241.9286
ARG_OF_PERICENTER = 276.2575
MEAN_ANOMALY   = 243.6667

EPHEMERIS_TYPE = 0
CLASSIFICATION_TYPE = U
NORAD_CAT_ID   = 67130
ELEMENT_SET_NO = 999
REV_AT_EPOCH   = 276
BSTAR          = -.84062351E-2
MEAN_MOTION_DOT = -.1774729E-1
MEAN_MOTION_DDOT = 0

CCSDS_OMM_VERS = 2.0
CREATION_DATE  = 
ORIGINATOR     = 

OBJECT_NAME    = ZIYUAN 3-04 (ZY 3-04)
OBJECT_ID      = 2025-300A
CENTER_NAME    = EARTH
REF_FRAME      = TEME
TIME_SYSTEM    = UTC
MEAN_ELEMENT_THEORY = SGP/SGP4

EPOCH          = 2025-12-21T18:22:34.187808
MEAN_MOTION    = 15.21179479
ECCENTRICITY   = .00027623
INCLINATION    = 97.4922
RA_OF_ASC_NODE = 69.8294
ARG_OF_PERICENTER = 167.6924
MEAN_ANOMALY   = 192.4380

EPHEMERIS_TYPE = 0
CLASSIFICATION_TYPE = U
NORAD_CAT_ID   = 67131
ELEMENT_SET_NO = 999
REV_AT_EPOCH   = 86
BSTAR          = .65769783E-4
MEAN_MOTION_DOT = .1396E-4
MEAN_MOTION_DDOT = 0

CCSDS_OMM_VERS = 2.0
CREATION_DATE  = 
ORIGINATOR     = 

OBJECT_NAME    = CZ-4B R/B
OBJECT_ID      = 2025-300B
CENTER_NAME    = EARTH
REF_FRAME      = TEME
TIME_SYSTEM    = UTC
MEAN_ELEMENT_THEORY = SGP/SGP4

EPOCH          = 2025-12-18T16:13:04.609056
MEAN_MOTION    = 15.63831828
ECCENTRICITY   = .01741973
INCLINATION    = 97.5563
RA_OF_ASC_NODE = 66.9660
ARG_OF_PERICENTER = 9.3582
MEAN_ANOMALY   = 351.0851

EPHEMERIS_TYPE = 0
CLASSIFICATION_TYPE = U
NORAD_CAT_ID   = 67132
ELEMENT_SET_NO = 999
REV_AT_EPOCH   = 40
BSTAR          = .19566238E-3
MEAN_MOTION_DOT = .40543E-3
MEAN_MOTION_DDOT = .2652968E-5

CCSDS_OMM_VERS = 2.0
CREATION_DATE  = 
ORIGINATOR     = 

OBJECT_NAME    = KUIPER-00144
OBJECT_ID      = 2025-301A
CENTER_NAME    = EARTH
REF_FRAME      = TEME
TIME_SYSTEM    = UTC
MEAN_ELEMENT_THEORY = SGP/SGP4

EPOCH          = 2025-12-24T22:00:03.000096
MEAN_MOTION    = 15.35379035
ECCENTRICITY   = .00060934
INCLINATION    = 51.8700
RA_OF_ASC_NODE = 66.4129
ARG_OF_PERICENTER = 118.1173
MEAN_ANOMALY   = 101.2600

EPHEMERIS_TYPE = 0
CLASSIFICATION_TYPE = U
NORAD_CAT_ID   = 67133
ELEMENT_SET_NO = 999
REV_AT_EPOCH   = 164
BSTAR          = .58681311E-4
MEAN_MOTION_DOT = .1664E-4
MEAN_MOTION_DDOT = 0

